STARLINK-1470
1 25772C 20038AU  21325.17048532  .00005722  00000-0  38329-3 0  3258
2 25772  53.0537  42.4781 0001676  62.7693   8.5454 15.06400978    16
